CCSDS_OMM_VERS = 2.0
CREATION_DATE  = 
ORIGINATOR     = 

OBJECT_NAME    = SL-16 R/B
OBJECT_ID      = 1998-043G
CENTER_NAME    = EARTH
REF_FRAME      = TEME
TIME_SYSTEM    = UTC
MEAN_ELEMENT_THEORY = SGP/SGP4

EPOCH          = 2026-02-07T11:47:11.689728
MEAN_MOTION    = 14.26042483
ECCENTRICITY   = .0010894
INCLINATION    = 98.8206
RA_OF_ASC_NODE = 351.6504
ARG_OF_PERICENTER = 100.8784
MEAN_ANOMALY   = 259.3622

EPHEMERIS_TYPE = 0
CLASSIFICATION_TYPE = U
NORAD_CAT_ID   = 25400
ELEMENT_SET_NO = 999
REV_AT_EPOCH   = 43468
BSTAR          = .67736E-4
MEAN_MOTION_DOT = .117E-5
MEAN_MOTION_DDOT = 0

CCSDS_OMM_VERS = 2.0
CREATION_DATE  = 
ORIGINATOR     = 

OBJECT_NAME    = SL-16 R/B
OBJECT_ID      = 1998-045B
CENTER_NAME    = EARTH
REF_FRAME      = TEME
TIME_SYSTEM    = UTC
MEAN_ELEMENT_THEORY = SGP/SGP4

EPOCH          = 2026-02-06T23:44:11.947488
MEAN_MOTION    = 14.16185255
ECCENTRICITY   = .00052981
INCLINATION    = 71.0084
RA_OF_ASC_NODE = 246.1368
ARG_OF_PERICENTER = 65.3371
MEAN_ANOMALY   = 294.8304

EPHEMERIS_TYPE = 0
CLASSIFICATION_TYPE = U
NORAD_CAT_ID   = 25407
ELEMENT_SET_NO = 999
REV_AT_EPOCH   = 42275
BSTAR          = -.2861316E-4
MEAN_MOTION_DOT = -.104E-5
MEAN_MOTION_DDOT = 0

CCSDS_OMM_VERS = 2.0
CREATION_DATE  = 
ORIGINATOR     = 

OBJECT_NAME    = ISS (ZARYA)
OBJECT_ID      = 1998-067A
CENTER_NAME    = EARTH
REF_FRAME      = TEME
TIME_SYSTEM    = UTC
MEAN_ELEMENT_THEORY = SGP/SGP4

EPOCH          = 2026-02-07T10:31:09.231456
MEAN_MOTION    = 15.48462308
ECCENTRICITY   = .001112
INCLINATION    = 51.6316
RA_OF_ASC_NODE = 221.8995
ARG_OF_PERICENTER = 73.2114
MEAN_ANOMALY   = 287.0093

EPHEMERIS_TYPE = 0
CLASSIFICATION_TYPE = U
NORAD_CAT_ID   = 25544
ELEMENT_SET_NO = 999
REV_AT_EPOCH   = 55164
BSTAR          = .25259E-3
MEAN_MOTION_DOT = .13256E-3
MEAN_MOTION_DDOT = 0

CCSDS_OMM_VERS = 2.0
CREATION_DATE  = 
ORIGINATOR     = 

OBJECT_NAME    = CZ-4B R/B
OBJECT_ID      = 1999-025C
CENTER_NAME    = EARTH
REF_FRAME      = TEME
TIME_SYSTEM    = UTC
MEAN_ELEMENT_THEORY = SGP/SGP4

EPOCH          = 2026-02-07T02:37:56.055648
MEAN_MOTION    = 14.18259191
ECCENTRICITY   = .00381239
INCLINATION    = 98.6688
RA_OF_ASC_NODE = 83.1071
ARG_OF_PERICENTER = 73.5070
MEAN_ANOMALY   = 305.5811

EPHEMERIS_TYPE = 0
CLASSIFICATION_TYPE = U
NORAD_CAT_ID   = 25732
ELEMENT_SET_NO = 999
REV_AT_EPOCH   = 38383
BSTAR          = .52419539E-4
MEAN_MOTION_DOT = .66E-6
MEAN_MOTION_DDOT = 0

CCSDS_OMM_VERS = 2.0
CREATION_DATE  = 
ORIGINATOR     = 

OBJECT_NAME    = OKEAN-O
OBJECT_ID      = 1999-039A
CENTER_NAME    = EARTH
REF_FRAME      = TEME
TIME_SYSTEM    = UTC
MEAN_ELEMENT_THEORY = SGP/SGP4

EPOCH          = 2026-02-07T04:00:13.623840
MEAN_MOTION    = 14.80285300
ECCENTRICITY   = .000189
INCLINATION    = 97.9510
RA_OF_ASC_NODE = 98.3582
ARG_OF_PERICENTER = 88.0837
MEAN_ANOMALY   = 272.0592

EPHEMERIS_TYPE = 0
CLASSIFICATION_TYPE = U
NORAD_CAT_ID   = 25860
ELEMENT_SET_NO = 999
REV_AT_EPOCH   = 42987
BSTAR          = .14129481E-3
MEAN_MOTION_DOT = .1024E-4
MEAN_MOTION_DDOT = 0

CCSDS_OMM_VERS = 2.0
CREATION_DATE  = 
ORIGINATOR     = 

OBJECT_NAME    = SL-16 R/B
OBJECT_ID      = 1999-039B
CENTER_NAME    = EARTH
REF_FRAME      = TEME
TIME_SYSTEM    = UTC
MEAN_ELEMENT_THEORY = SGP/SGP4

EPOCH          = 2026-02-07T04:12:47.368800
MEAN_MOTION    = 14.81688141
ECCENTRICITY   = .00147582
INCLINATION    = 98.0032
RA_OF_ASC_NODE = 97.3070
ARG_OF_PERICENTER = 1.9945
MEAN_ANOMALY   = 358.1324

EPHEMERIS_TYPE = 0
CLASSIFICATION_TYPE = U
NORAD_CAT_ID   = 25861
ELEMENT_SET_NO = 999
REV_AT_EPOCH   = 43234
BSTAR          = .10904754E-3
MEAN_MOTION_DOT = .806E-5
MEAN_MOTION_DDOT = 0

CCSDS_OMM_VERS = 2.0
CREATION_DATE  = 
ORIGINATOR     = 

OBJECT_NAME    = DELTA 2 R/B
OBJECT_ID      = 1999-041E
CENTER_NAME    = EARTH
REF_FRAME      = TEME
TIME_SYSTEM    = UTC
MEAN_ELEMENT_THEORY = SGP/SGP4

EPOCH          = 2026-02-07T10:12:21.595680
MEAN_MOTION    = 14.11715206
ECCENTRICITY   = .0502324
INCLINATION    = 51.7648
RA_OF_ASC_NODE = 62.1362
ARG_OF_PERICENTER = 259.0175
MEAN_ANOMALY   = 95.3879

EPHEMERIS_TYPE = 0
CLASSIFICATION_TYPE = U
NORAD_CAT_ID   = 25876
ELEMENT_SET_NO = 999
REV_AT_EPOCH   = 35875
BSTAR          = .45605E-3
MEAN_MOTION_DOT = .2603E-4
MEAN_MOTION_DDOT = 0

CCSDS_OMM_VERS = 2.0
CREATION_DATE  = 
ORIGINATOR     = 

OBJECT_NAME    = HELIOS 1B
OBJECT_ID      = 1999-064A
CENTER_NAME    = EARTH
REF_FRAME      = TEME
TIME_SYSTEM    = UTC
MEAN_ELEMENT_THEORY = SGP/SGP4

EPOCH          = 2026-02-07T07:28:31.948032
MEAN_MOTION    = 14.87571823
ECCENTRICITY   = .000201
INCLINATION    = 98.1724
RA_OF_ASC_NODE = 299.6583
ARG_OF_PERICENTER = 117.6313
MEAN_ANOMALY   = 242.5107

EPHEMERIS_TYPE = 0
CLASSIFICATION_TYPE = U
NORAD_CAT_ID   = 25977
ELEMENT_SET_NO = 999
REV_AT_EPOCH   = 68074
BSTAR          = .27915E-3
MEAN_MOTION_DOT = .2477E-4
MEAN_MOTION_DDOT = 0

CCSDS_OMM_VERS = 2.0
CREATION_DATE  = 
ORIGINATOR     = 

OBJECT_NAME    = TERRA
OBJECT_ID      = 1999-068A
CENTER_NAME    = EARTH
REF_FRAME      = TEME
TIME_SYSTEM    = UTC
MEAN_ELEMENT_THEORY = SGP/SGP4

EPOCH          = 2026-02-07T10:37:47.055936
MEAN_MOTION    = 14.60981655
ECCENTRICITY   = .0000939
INCLINATION    = 97.9658
RA_OF_ASC_NODE = 93.0232
ARG_OF_PERICENTER = 282.2008
MEAN_ANOMALY   = 133.9727

EPHEMERIS_TYPE = 0
CLASSIFICATION_TYPE = U
NORAD_CAT_ID   = 25994
ELEMENT_SET_NO = 999
REV_AT_EPOCH   = 39066
BSTAR          = .13656E-3
MEAN_MOTION_DOT = .625E-5
MEAN_MOTION_DDOT = 0

CCSDS_OMM_VERS = 2.0
CREATION_DATE  = 
ORIGINATOR     = 

OBJECT_NAME    = SL-16 R/B
OBJECT_ID      = 2000-006B
CENTER_NAME    = EARTH
REF_FRAME      = TEME
TIME_SYSTEM    = UTC
MEAN_ELEMENT_THEORY = SGP/SGP4

EPOCH          = 2026-02-07T11:47:02.775840
MEAN_MOTION    = 14.15820786
ECCENTRICITY   = .0018421
INCLINATION    = 71.0030
RA_OF_ASC_NODE = 161.3329
ARG_OF_PERICENTER = 232.7462
MEAN_ANOMALY   = 127.1981

EPHEMERIS_TYPE = 0
CLASSIFICATION_TYPE = U
NORAD_CAT_ID   = 26070
ELEMENT_SET_NO = 999
REV_AT_EPOCH   = 34428
BSTAR          = .61311E-5
MEAN_MOTION_DOT = -.36E-6
MEAN_MOTION_DDOT = 0

CCSDS_OMM_VERS = 2.0
CREATION_DATE  = 
ORIGINATOR     = 

OBJECT_NAME    = TITAN 4B R/B
OBJECT_ID      = 2000-047B
CENTER_NAME    = EARTH
REF_FRAME      = TEME
TIME_SYSTEM    = UTC
MEAN_ELEMENT_THEORY = SGP/SGP4

EPOCH          = 2026-02-07T11:31:19.954848
MEAN_MOTION    = 15.09312019
ECCENTRICITY   = .0037022
INCLINATION    = 67.9892
RA_OF_ASC_NODE = 125.4426
ARG_OF_PERICENTER = 72.5225
MEAN_ANOMALY   = 287.9965

EPHEMERIS_TYPE = 0
CLASSIFICATION_TYPE = U
NORAD_CAT_ID   = 26474
ELEMENT_SET_NO = 999
REV_AT_EPOCH   = 38835
BSTAR          = .30267E-3
MEAN_MOTION_DOT = .4782E-4
MEAN_MOTION_DDOT = 0

CCSDS_OMM_VERS = 2.0
CREATION_DATE  = 
ORIGINATOR     = 

OBJECT_NAME    = ENVISAT
OBJECT_ID      = 2002-009A
CENTER_NAME    = EARTH
REF_FRAME      = TEME
TIME_SYSTEM    = UTC
MEAN_ELEMENT_THEORY = SGP/SGP4

EPOCH          = 2026-02-07T12:22:09.646752
MEAN_MOTION    = 14.39025564
ECCENTRICITY   = .0001284
INCLINATION    = 98.3678
RA_OF_ASC_NODE = 352.8412
ARG_OF_PERICENTER = 91.0506
MEAN_ANOMALY   = 24.4608

EPHEMERIS_TYPE = 0
CLASSIFICATION_TYPE = U
NORAD_CAT_ID   = 27386
ELEMENT_SET_NO = 999
REV_AT_EPOCH   = 25483
BSTAR          = .79803E-4
MEAN_MOTION_DOT = .204E-5
MEAN_MOTION_DDOT = 0

